[{"OBJECT_NAME":"ISS (ZARYA)","OBJECT_ID":"1998-067A","EPOCH":"2025-09-20T03:40:29.131680","MEAN_MOTION":15.50431661,"ECCENTRICITY":0.0004371,"INCLINATION":51.6337,"RA_OF_ASC_NODE":196.3707,"ARG_OF_PERICENTER":358.2759,"MEAN_ANOMALY":1.8214,"EPHEMERIS_TYPE":0,"CLASSIFICATION_TYPE":"U","NORAD_CAT_ID":25544,"ELEMENT_SET_NO":999,"REV_AT_EPOCH":52989,"BSTAR":0.00027067057,"MEAN_MOTION_DOT":0.0001526,"MEAN_MOTION_DDOT":0},{"OBJECT_NAME":"CSS (TIANHE)","OBJECT_ID":"2021-035A","EPOCH":"2025-09-20T02:39:38.425824","MEAN_MOTION":15.59819407,"ECCENTRICITY":0.00027982,"INCLINATION":41.4646,"RA_OF_ASC_NODE":165.1323,"ARG_OF_PERICENTER":20.855,"MEAN_ANOMALY":339.2402,"EPHEMERIS_TYPE":0,"CLASSIFICATION_TYPE":"U","NORAD_CAT_ID":48274,"ELEMENT_SET_NO":999,"REV_AT_EPOCH":25096,"BSTAR":0.00036502925,"MEAN_MOTION_DOT":0.00029933,"MEAN_MOTION_DDOT":0},{"OBJECT_NAME":"ISS (NAUKA)","OBJECT_ID":"2021-066A","EPOCH":"2025-09-20T03:40:29.131680","MEAN_MOTION":15.50431661,"ECCENTRICITY":0.0004371,"INCLINATION":51.6337,"RA_OF_ASC_NODE":196.3707,"ARG_OF_PERICENTER":358.2759,"MEAN_ANOMALY":1.8214,"EPHEMERIS_TYPE":0,"CLASSIFICATION_TYPE":"U","NORAD_CAT_ID":49044,"ELEMENT_SET_NO":999,"REV_AT_EPOCH":23044,"BSTAR":0.00027067057,"MEAN_MOTION_DOT":0.0001526,"MEAN_MOTION_DDOT":0},{"OBJECT_NAME":"FREGAT DEB","OBJECT_ID":"2011-037PF","EPOCH":"2025-09-19T19:33:31.930560","MEAN_MOTION":12.3318994,"ECCENTRICITY":0.09442422,"INCLINATION":51.6384,"RA_OF_ASC_NODE":87.6821,"ARG_OF_PERICENTER":41.1289,"MEAN_ANOMALY":325.6966,"EPHEMERIS_TYPE":0,"CLASSIFICATION_TYPE":"U","NORAD_CAT_ID":49271,"ELEMENT_SET_NO":999,"REV_AT_EPOCH":19157,"BSTAR":0.017519127,"MEAN_MOTION_DOT":9.889e-5,"MEAN_MOTION_DDOT":0},{"OBJECT_NAME":"CSS (WENTIAN)","OBJECT_ID":"2022-085A","EPOCH":"2025-09-20T02:39:38.425824","MEAN_MOTION":15.59819407,"ECCENTRICITY":0.00027982,"INCLINATION":41.4646,"RA_OF_ASC_NODE":165.1323,"ARG_OF_PERICENTER":20.855,"MEAN_ANOMALY":339.2402,"EPHEMERIS_TYPE":0,"CLASSIFICATION_TYPE":"U","NORAD_CAT_ID":53239,"ELEMENT_SET_NO":999,"REV_AT_EPOCH":17384,"BSTAR":0.00036502925,"MEAN_MOTION_DOT":0.00029933,"MEAN_MOTION_DDOT":0},{"OBJECT_NAME":"CSS (MENGTIAN)","OBJECT_ID":"2022-143A","EPOCH":"2025-09-20T02:39:38.425824","MEAN_MOTION":15.59819407,"ECCENTRICITY":0.00027982,"INCLINATION":41.4646,"RA_OF_ASC_NODE":165.1323,"ARG_OF_PERICENTER":20.855,"MEAN_ANOMALY":339.2402,"EPHEMERIS_TYPE":0,"CLASSIFICATION_TYPE":"U","NORAD_CAT_ID":54216,"ELEMENT_SET_NO":999,"REV_AT_EPOCH":15864,"BSTAR":0.00036502925,"MEAN_MOTION_DOT":0.00029933,"MEAN_MOTION_DDOT":0},{"OBJECT_NAME":"SOYUZ-MS 27","OBJECT_ID":"2025-072A","EPOCH":"2025-09-20T03:40:29.131680","MEAN_MOTION":15.50431661,"ECCENTRICITY":0.0004371,"INCLINATION":51.6337,"RA_OF_ASC_NODE":196.3707,"ARG_OF_PERICENTER":358.2759,"MEAN_ANOMALY":1.8214,"EPHEMERIS_TYPE":0,"CLASSIFICATION_TYPE":"U","NORAD_CAT_ID":63520,"ELEMENT_SET_NO":999,"REV_AT_EPOCH":2020,"BSTAR":0.00027067057,"MEAN_MOTION_DOT":0.0001526,"MEAN_MOTION_DDOT":0},{"OBJECT_NAME":"SHENZHOU-20 (SZ-20)","OBJECT_ID":"2025-082A","EPOCH":"2025-09-20T02:39:38.425824","MEAN_MOTION":15.59819407,"ECCENTRICITY":0.00027982,"INCLINATION":41.4646,"RA_OF_ASC_NODE":165.1323,"ARG_OF_PERICENTER":20.855,"MEAN_ANOMALY":339.2402,"EPHEMERIS_TYPE":0,"CLASSIFICATION_TYPE":"U","NORAD_CAT_ID":63632,"ELEMENT_SET_NO":999,"REV_AT_EPOCH":23717,"BSTAR":0.00036502925,"MEAN_MOTION_DOT":0.00029933,"MEAN_MOTION_DDOT":0},{"OBJECT_NAME":"PROGRESS-MS 31","OBJECT_ID":"2025-146A","EPOCH":"2025-09-20T03:40:29.131680","MEAN_MOTION":15.50431661,"ECCENTRICITY":0.0004371,"INCLINATION":51.6337,"RA_OF_ASC_NODE":196.3707,"ARG_OF_PERICENTER":358.2759,"MEAN_ANOMALY":1.8214,"EPHEMERIS_TYPE":0,"CLASSIFICATION_TYPE":"U","NORAD_CAT_ID":64751,"ELEMENT_SET_NO":999,"REV_AT_EPOCH":675,"BSTAR":0.00027067057,"MEAN_MOTION_DOT":0.0001526,"MEAN_MOTION_DDOT":0},{"OBJECT_NAME":"TIANZHOU-9","OBJECT_ID":"2025-149A","EPOCH":"2025-09-20T02:39:38.425824","MEAN_MOTION":15.59819407,"ECCENTRICITY":0.00027982,"INCLINATION":41.4646,"RA_OF_ASC_NODE":165.1323,"ARG_OF_PERICENTER":20.855,"MEAN_ANOMALY":339.2402,"EPHEMERIS_TYPE":0,"CLASSIFICATION_TYPE":"U","NORAD_CAT_ID":64786,"ELEMENT_SET_NO":999,"REV_AT_EPOCH":511,"BSTAR":0.00036502925,"MEAN_MOTION_DOT":0.00029933,"MEAN_MOTION_DDOT":0},{"OBJECT_NAME":"CREW DRAGON 11","OBJECT_ID":"2025-166A","EPOCH":"2025-09-20T03:40:29.131680","MEAN_MOTION":15.50431661,"ECCENTRICITY":0.0004371,"INCLINATION":51.6337,"RA_OF_ASC_NODE":196.3707,"ARG_OF_PERICENTER":358.2759,"MEAN_ANOMALY":1.8214,"EPHEMERIS_TYPE":0,"CLASSIFICATION_TYPE":"U","NORAD_CAT_ID":65077,"ELEMENT_SET_NO":999,"REV_AT_EPOCH":214,"BSTAR":0.00027067057,"MEAN_MOTION_DOT":0.0001526,"MEAN_MOTION_DDOT":0},{"OBJECT_NAME":"DRAGON CRS-33","OBJECT_ID":"2025-186A","EPOCH":"2025-09-20T03:40:29.131680","MEAN_MOTION":15.50431661,"ECCENTRICITY":0.0004371,"INCLINATION":51.6337,"RA_OF_ASC_NODE":196.3707,"ARG_OF_PERICENTER":358.2759,"MEAN_ANOMALY":1.8214,"EPHEMERIS_TYPE":0,"CLASSIFICATION_TYPE":"U","NORAD_CAT_ID":65304,"ELEMENT_SET_NO":999,"REV_AT_EPOCH":11,"BSTAR":0.00027067057,"MEAN_MOTION_DOT":0.0001526,"MEAN_MOTION_DDOT":0},{"OBJECT_NAME":"PROGRESS-MS 32","OBJECT_ID":"2025-204A","EPOCH":"2025-09-20T03:40:29.131680","MEAN_MOTION":15.50431661,"ECCENTRICITY":0.0004371,"INCLINATION":51.6337,"RA_OF_ASC_NODE":196.3707,"ARG_OF_PERICENTER":358.2759,"MEAN_ANOMALY":1.8214,"EPHEMERIS_TYPE":0,"CLASSIFICATION_TYPE":"U","NORAD_CAT_ID":65586,"ELEMENT_SET_NO":999,"REV_AT_EPOCH":57,"BSTAR":0.00027067057,"MEAN_MOTION_DOT":0.0001526,"MEAN_MOTION_DDOT":0},{"OBJECT_NAME":"CYGNUS NG-23","OBJECT_ID":"2025-208A","EPOCH":"2025-09-20T03:40:29.131680","MEAN_MOTION":15.50431661,"ECCENTRICITY":0.0004371,"INCLINATION":51.6337,"RA_OF_ASC_NODE":196.3707,"ARG_OF_PERICENTER":358.2759,"MEAN_ANOMALY":1.8214,"EPHEMERIS_TYPE":0,"CLASSIFICATION_TYPE":"U","NORAD_CAT_ID":65616,"ELEMENT_SET_NO":999,"REV_AT_EPOCH":22,"BSTAR":0.00027067057,"MEAN_MOTION_DOT":0.0001526,"MEAN_MOTION_DDOT":0}]
