ISS (ZARYA)             
1 25544U 98067A   25263.15311495  .00015260  00000+0  27067-3 0  9995
2 25544  51.6337 196.3707 0004371 358.2759   1.8214 15.50431661529895
CSS (TIANHE)            
1 48274U 21035A   25263.11086141  .00029933  00000+0  36503-3 0  9991
2 48274  41.4646 165.1323 0002798  20.8550 339.2402 15.59819407250963
ISS (NAUKA)             
1 49044U 21066A   25263.15311495  .00015260  00000+0  27067-3 0  9991
2 49044  51.6337 196.3707 0004371 358.2759   1.8214 15.50431661230446
FREGAT DEB              
1 49271U 11037PF  25262.81495290  .00009889  00000+0  17519-1 0  9997
2 49271  51.6384  87.6821 0944242  41.1289 325.6966 12.33189940191574
CSS (WENTIAN)           
1 53239U 22085A   25263.11086141  .00029933  00000+0  36503-3 0  9994
2 53239  41.4646 165.1323 0002798  20.8550 339.2402 15.59819407173841
CSS (MENGTIAN)          
1 54216U 22143A   25263.11086141  .00029933  00000+0  36503-3 0  9995
2 54216  41.4646 165.1323 0002798  20.8550 339.2402 15.59819407158648
SOYUZ-MS 27             
1 63520U 25072A   25263.15311495  .00015260  00000+0  27067-3 0  9997
2 63520  51.6337 196.3707 0004371 358.2759   1.8214 15.50431661 20202
SHENZHOU-20 (SZ-20)     
1 63632U 25082A   25263.11086141  .00029933  00000+0  36503-3 0  9992
2 63632  41.4646 165.1323 0002798  20.8550 339.2402 15.59819407237176
PROGRESS-MS 31          
1 64751U 25146A   25263.15311495  .00015260  00000+0  27067-3 0  9996
2 64751  51.6337 196.3707 0004371 358.2759   1.8214 15.50431661  6753
TIANZHOU-9              
1 64786U 25149A   25263.11086141  .00029933  00000+0  36503-3 0  9997
2 64786  41.4646 165.1323 0002798  20.8550 339.2402 15.59819407  5114
CREW DRAGON 11          
1 65077U 25166A   25263.15311495  .00015260  00000+0  27067-3 0  9990
2 65077  51.6337 196.3707 0004371 358.2759   1.8214 15.50431661  2144
DRAGON CRS-33           
1 65304U 25186A   25263.15311495  .00015260  00000+0  27067-3 0  9995
2 65304  51.6337 196.3707 0004371 358.2759   1.8214 15.50431661   112
PROGRESS-MS 32          
1 65586U 25204A   25263.15311495  .00015260  00000+0  27067-3 0  9998
2 65586  51.6337 196.3707 0004371 358.2759   1.8214 15.50431661   574
CYGNUS NG-23            
1 65616U 25208A   25263.15311495  .00015260  00000+0  27067-3 0  9996
2 65616  51.6337 196.3707 0004371 358.2759   1.8214 15.50431661   220
